#dP2022 12 20 18  0  0.00000000      96 __u+U ITR00 EXT  IAC
## 2241 237600.00000000   900.00000000 59933 0.7500000000000
+  118   C06C07C08C09C10C11C12C13C14C16C19C20C21C22C23C24C25
+        C26C27C28C29C30C32C33C34C35C36C37C38C39C40C41C42C43
+        C44C45C46E01E02E03E04E05E07E08E09E10E11E12E13E14E15
+        E18E19E21E24E25E26E27E30E31E33E34E36G01G02G03G04G05
+        G06G07G08G09G10G11G12G13G14G15G16G17G18G19G20G21G22
+        G23G24G25G26G27G29G30G31G32J02J03J04R01R02R03R04R05
+        R07R08R09R11R12R13R14R15R17R18R19R20R21R22R24R25  0
++         0  0  0  0  0  0  0  0  0  0  0  0  0  0  0  0  0
++         0  0  0  0  0  0  0  0  0  0  0  0  0  0  0  0  0
++         0  0  0  0  0  0  0  0  0  0  0  0  0  0  0  0  0
++         0  0  0  0  0  0  0  0  0  0  0  0  0  0  0  0  0
++         0  0  0  0  0  0  0  0  0  0  0  0  0  0  0  0  0
++         0  0  0  0  0  0  0  0  0  0  0  0  0  0  0  0  0
++         0  0  0  0  0  0  0  0  0  0  0  0  0  0  0  0  0
%c M  cc GPS ccc cccc cccc cccc cccc ccccc ccccc ccccc ccccc
%c cc cc ccc ccc cccc cccc cccc cccc ccccc ccccc ccccc ccccc
%f  0.0000000  0.000000000  0.00000000000  0.000000000000000
%f  0.0000000  0.000000000  0.00000000000  0.000000000000000
%i    0    0    0    0      0      0      0      0         0
%i    0    0    0    0      0      0      0      0         0
/* IAC                                ULTRA-RAPID PREDICTION
/* S/V CLOCKS ARE ALIGNED TO GNSS TIME                      
/* G:C1WC2W R:C1PC2P E:C1XC5X C:C2IC6I J:C1CC2S             
/* PCV:IGS20_2239 OL/AL:FES2004  NONE     YN ORB:CoN CLK:CoN
*  2022 12 21  5 15  0.00000000
PC06  -8856.219612  23599.083673  33762.062357    214.759561
PC07 -13681.995840  39098.873023  -8251.192103    131.286138
PC08   1110.086795  34060.002426 -24699.341262    524.168298
PC09   -165.435190  24891.242697  34434.748183   -777.929712
PC10  -9003.242245  39254.293430 -12980.303267     47.637107
PC11  23595.045244  -8523.610191  12269.883609   -223.877590
PC12  27324.034872   2487.458422  -5019.770384    356.516666
PC13   6017.086970  36909.655044 -19017.143488    163.443451
PC14  17794.057428 -18515.276203  10878.180882    286.508037
PC16 -13821.800325  22046.135810  33308.424031     97.729713
PC19 -13722.075607  24237.808622  -1804.892623   -902.050146
PC20 -18898.736233  11609.743798 -16938.973734    798.082270
PC21  13013.860832   9053.631861  22977.998327   -924.185833
PC22   -435.288471  23484.875262  15076.019293   -728.703297
PC23  -8709.193576 -25070.296801  -8645.278885   -871.126827
PC24  18722.894412   1627.246446 -20635.891069   -646.948744
PC25   5837.968941 -17842.777903 -20666.204700     42.813518
PC26  19839.722800  17169.202576  -9464.985527    -52.852981
PC27 -23516.343984  -7950.502318  12720.091254     69.424795
PC28  -7056.583615 -15230.337863  22300.888878     49.672554
PC29 -14677.249806  14344.671664 -18910.049044     56.580507
PC30 -27281.280253   4589.038601  -3578.598181      1.237828
PC32 -13039.296720  -9034.989505 -22946.722678   -675.718463
PC33  13648.590429 -24258.672452   1939.759229   -890.876148
PC34  26998.385740  -5315.718540   4712.690706     65.783665
PC35   5722.880029  15399.955713 -22565.645604    142.756092
PC36  -6809.486417  17173.894115  20928.087001   -752.358593
PC37 -19076.948444 -18657.358084   8227.841331   -874.188729
PC38  -5238.364053  30440.738936 -28596.520083     46.425787
PC39 -17523.540992  21612.292389  31640.741017     -1.115570
PC40 -21613.892782  35908.590552  -5532.657960    -10.664158
PC41    820.964115 -23760.750802 -14566.481417   -403.531451
PC42  18903.540716 -10335.858136  17768.848542   -892.106899
PC43  15510.282623 -14145.413252  18393.313401     31.204820
PC44  23693.471429   7296.973481 -12850.735811    151.754573
PC45   9020.293884  25042.533053   8325.693773    -37.359528
PC46 -17971.845762    146.333646  21352.860224    -20.980470
PE01 -15067.998393 -13725.163949  21470.125052   -580.958046
PE02  15163.026268  13356.050917 -21625.045366      9.837938
PE03  21682.856688   2966.323016  19918.885021   -631.899122
PE04 -26367.106491  12591.664233  -4716.387815    -18.672182
PE05   4131.350808  17150.935445  23763.800351   -113.031452
PE07  15595.106835 -21119.413979 -13671.110813     -8.834770
PE08  26328.894538 -12643.119855   4785.546161     -6.171705
PE09 -15777.061811  21062.850044  13553.327856   -771.445353
PE10 -15960.406643   8649.982187 -23381.936257   -499.306032
PE11  -5324.420390  15339.031876 -24752.306740     97.508676
PE12 -23125.415188   1292.819852 -18419.588048   -344.786470
PE13   6258.328894 -14801.809302  24866.893446    430.293214
PE14  24388.464116  -4180.728876  -7593.895487     90.549921
PE15  23288.127011  -1046.894517  18254.090974    699.536639
PE18 -26252.593935  16232.223776  -5214.716609   -603.640510
PE19 -19831.623619  -5156.204793 -21358.375534  -3690.553711
PE21  -6579.126902 -27643.336808   8311.261234   -501.563099
PE24  -7032.459986  26399.507021  11340.010834  -1013.384033
PE25   6385.881737  27758.462555  -8023.069357   -595.398903
PE26 -14940.079417 -19822.490931  16139.426989  -1875.213389
PE27   6352.587471 -26919.001435 -10569.867163   -468.243165
PE30  15690.425464  -9504.958933 -23245.371112  -1095.024445
PE31 -15427.919206  10328.813629  23056.861886   -511.211280
PE33 -26452.111637 -13248.691790   -889.156891   -455.294718
PE34  26520.095918  13090.960776   1074.422788    -20.699263
PE36  14262.399245  19733.500683 -16826.779603   -478.479444
PG01  22397.578736  14624.251423    -87.397923    234.895412
PG02 -23890.440210 -11076.690701  -1774.095702   -631.905419
PG03  12310.216955  13794.066463  18989.704311   -375.116578
PG04  19353.133806   4331.841243  17722.254036    -64.561938
PG05  -6350.073546 -24202.061042  -8899.947626   -108.883503
PG06   7890.088964 -12334.359571  22227.550643    544.240078
PG07  23039.523035   3870.932726 -12652.943257    271.334341
PG08   9720.983887  11940.428176 -21710.562334    -99.671344
PG09  24174.557011  -6005.294952   9206.318954   -250.041129
PG10 -11315.279006  17747.245106 -15838.611809    -17.004814
PG11  -4762.305454 -18777.788255  18195.886945    -61.232897
PG12 -10970.981291 -15606.594528  18251.718705   -318.447416
PG13   -900.847505 -15527.792007 -21683.977723    445.584842
PG14  13283.554390 -15383.324617 -17029.421752    -64.527454
PG15 -11560.988114 -11384.000390 -21497.832223     -2.303707
PG16    773.114836  25719.341685  -5784.570007   -525.778336
PG17  22649.809483 -13423.528411   4274.106160    687.518641
PG18 -21600.462947  -1544.772619 -15472.566946    -67.225821
PG19  15423.828740 -16254.398389  13821.964310    253.325903
PG20   -452.509619 -26378.528347   4006.803147    462.207314
PG21  19856.270796  16264.320085  -7636.103197    153.320181
PG22 -12034.851488  17491.746051  16273.833216    389.069490
PG23 -14560.937189   6355.004174 -21261.750571      0.482636
PG24 -21657.181021 -15132.743861  -4763.171871      6.141704
PG25 -14891.175998  -4688.066447  21214.344743    403.985468
PG26  -4627.591392  24941.330331   7155.496850    238.833963
PG27  -2455.051942  17080.060009 -20297.309301    147.690195
PG29 -23985.073163   2212.289371  11235.756737   -575.415825
PG30  15969.410879  -7203.932728 -19938.775003   -535.021327
PG31  -7025.199346  13623.249426  21505.454762   -203.912825
PG32 -20191.794995  15945.602157   6305.882010   -336.938321
PJ02 -28041.547154  25481.747459  23560.319627     -0.370332
PJ03 -29510.272898  17524.885965 -19752.033704     -7.142985
PJ04 -22573.089487  33767.708685  -6526.841010    115.828470
PR01   4078.570829 -18985.071814 -16540.479200     19.905101
PR02  -9669.443411  -5154.598805 -22992.039834    -23.376425
PR03 -17375.233322  10820.470583 -15137.028579     69.439348
PR04 -15333.836374  20352.150898    939.601876    169.396861
PR05  -4961.627282  18783.236707  16519.341407    104.893620
PR07  17567.004140 -11452.872111  14597.923470     46.487754
PR08  15234.304653 -20458.047266   -967.855384    -68.638870
PR09  14289.269499  17081.611553 -12491.300911     94.160163
PR11   3781.614869 -15272.713525 -20066.604045     13.278033
PR12  -7514.099580 -23900.258394  -4835.094206     23.770312
PR13 -13757.585144 -18365.002530  11129.688986    -30.142742
PR14 -12135.166192   -750.693528  22429.645554     24.104606
PR15  -3404.121116  16130.011562  19479.821752     92.215316
PR17 -24514.518124   -155.010839  -7107.048585    588.776709
PR18 -13834.801104   7112.358786 -20177.207872     57.845206
PR19   2219.095695  10772.385211 -23007.269425   -215.323902
PR20  21207.571028   8812.388177 -11129.530214    -84.379804
PR21  23942.591563   -495.938483   8753.674320   -359.142829
PR22  13455.666624  -7279.774655  20446.127828     19.061109
PR24 -21774.442831  -8191.956169  10502.905046    134.174479
PR25  24556.242880   1421.647169   6726.656956     49.442694
EOF
